IRIDIUM 119             
1 42959U 17061E   24052.90433456  .00000278  00000+0  92302-4 0  9997
2 42959  86.3993  18.8939 0001967  86.0646 274.0775 14.34217002333511
IRIDIUM 107             
1 42960U 17061F   24052.92336275  .00000331  00000+0  11105-3 0  9993
2 42960  86.3995  18.9020 0002091  94.8331 265.3103 14.34218569333522
IRIDIUM 132             
1 42961U 17061G   24052.92970556  .00000283  00000+0  93920-4 0  9992
2 42961  86.3995  18.8849 0002028  92.8235 267.3192 14.34218816333527
IRIDIUM 136             
1 42962U 17061H   24053.17072271 -.00000257  00000+0 -98668-4 0  9995
2 42962  86.3994  18.7873 0001913  78.9549 281.1861 14.34215923333576
IRIDIUM 139             
1 42963U 17061J   24052.89799380  .00000162  00000+0  50679-4 0  9994
2 42963  86.3996  18.9491 0002112  92.0822 268.0615 14.34216991333544
IRIDIUM 125             
1 42964U 17061K   24052.95507531  .00000258  00000+0  85048-4 0  9991
2 42964  86.3998  18.9708 0001778  89.6671 270.4729 14.34216358333561
IRIDIUM 135             
1 43070U 17083A   24053.13850884  .00000044  00000+0  84902-5 0  9999
2 43070  86.3989 315.6162 0002413  87.1861 272.9611 14.34215641322886
IRIDIUM 138             
1 43071U 17083B   24052.81503506  .00000114  00000+0  33806-4 0  9994
2 43071  86.3977 315.4832 0001842  82.6416 277.4989 14.34218361322821
